[{"OBJECT_NAME":"STARLINK-34273","OBJECT_ID":"2025-157B","EPOCH":"2026-01-23T12:07:15.450816","MEAN_MOTION":15.39636601,"ECCENTRICITY":0.00012647,"INCLINATION":53.1575,"RA_OF_ASC_NODE":196.4103,"ARG_OF_PERICENTER":85.553,"MEAN_ANOMALY":274.562,"EPHEMERIS_TYPE":0,"CLASSIFICATION_TYPE":"U","NORAD_CAT_ID":64905,"ELEMENT_SET_NO":999,"REV_AT_EPOCH":2920,"BSTAR":0.001628994,"MEAN_MOTION_DOT":0.00065355,"MEAN_MOTION_DDOT":0},{"OBJECT_NAME":"STARLINK-34713","OBJECT_ID":"2025-157C","EPOCH":"2026-01-23T20:21:23.204736","MEAN_MOTION":15.39699568,"ECCENTRICITY":4.433e-5,"INCLINATION":53.1601,"RA_OF_ASC_NODE":194.999,"ARG_OF_PERICENTER":324.3125,"MEAN_ANOMALY":35.785,"EPHEMERIS_TYPE":0,"CLASSIFICATION_TYPE":"U","NORAD_CAT_ID":64906,"ELEMENT_SET_NO":999,"REV_AT_EPOCH":2919,"BSTAR":0.0019146529,"MEAN_MOTION_DOT":0.00077166,"MEAN_MOTION_DDOT":0},{"OBJECT_NAME":"STARLINK-34712","OBJECT_ID":"2025-157D","EPOCH":"2026-01-23T21:41:29.981472","MEAN_MOTION":15.39644833,"ECCENTRICITY":0.00020258,"INCLINATION":53.1581,"RA_OF_ASC_NODE":194.6366,"ARG_OF_PERICENTER":62.3798,"MEAN_ANOMALY":297.7412,"EPHEMERIS_TYPE":0,"CLASSIFICATION_TYPE":"U","NORAD_CAT_ID":64907,"ELEMENT_SET_NO":999,"REV_AT_EPOCH":2925,"BSTAR":0.001611725,"MEAN_MOTION_DOT":0.00064671,"MEAN_MOTION_DDOT":0},{"OBJECT_NAME":"STARLINK-34702","OBJECT_ID":"2025-157E","EPOCH":"2026-01-22T21:45:56.067552","MEAN_MOTION":15.39647645,"ECCENTRICITY":6.878e-5,"INCLINATION":53.1562,"RA_OF_ASC_NODE":199.0742,"ARG_OF_PERICENTER":67.033,"MEAN_ANOMALY":293.0748,"EPHEMERIS_TYPE":0,"CLASSIFICATION_TYPE":"U","NORAD_CAT_ID":64908,"ELEMENT_SET_NO":999,"REV_AT_EPOCH":2910,"BSTAR":0.0011740853,"MEAN_MOTION_DOT":0.00046895,"MEAN_MOTION_DDOT":0},{"OBJECT_NAME":"STARLINK-34687","OBJECT_ID":"2025-157F","EPOCH":"2026-01-23T22:28:08.117184","MEAN_MOTION":15.3979843,"ECCENTRICITY":0.00016548,"INCLINATION":53.1588,"RA_OF_ASC_NODE":194.1225,"ARG_OF_PERICENTER":89.7744,"MEAN_ANOMALY":270.345,"EPHEMERIS_TYPE":0,"CLASSIFICATION_TYPE":"U","NORAD_CAT_ID":64909,"ELEMENT_SET_NO":999,"REV_AT_EPOCH":2921,"BSTAR":-0.0044715147,"MEAN_MOTION_DOT":-0.00176226,"MEAN_MOTION_DDOT":0},{"OBJECT_NAME":"STARLINK-34642","OBJECT_ID":"2025-157G","EPOCH":"2026-01-23T20:48:07.848864","MEAN_MOTION":15.39663997,"ECCENTRICITY":3.281e-5,"INCLINATION":53.1589,"RA_OF_ASC_NODE":195.1152,"ARG_OF_PERICENTER":67.1653,"MEAN_ANOMALY":292.9386,"EPHEMERIS_TYPE":0,"CLASSIFICATION_TYPE":"U","NORAD_CAT_ID":64910,"ELEMENT_SET_NO":999,"REV_AT_EPOCH":2924,"BSTAR":0.00131139,"MEAN_MOTION_DOT":0.00052493,"MEAN_MOTION_DDOT":0},{"OBJECT_NAME":"STARLINK-34718","OBJECT_ID":"2025-157H","EPOCH":"2026-01-23T20:34:45.574752","MEAN_MOTION":15.39692043,"ECCENTRICITY":1.494e-5,"INCLINATION":53.1605,"RA_OF_ASC_NODE":195.0562,"ARG_OF_PERICENTER":274.5527,"MEAN_ANOMALY":85.5461,"EPHEMERIS_TYPE":0,"CLASSIFICATION_TYPE":"U","NORAD_CAT_ID":64911,"ELEMENT_SET_NO":999,"REV_AT_EPOCH":2924,"BSTAR":0.001346896,"MEAN_MOTION_DOT":0.00053986,"MEAN_MOTION_DDOT":0},{"OBJECT_NAME":"STARLINK-34711","OBJECT_ID":"2025-157J","EPOCH":"2026-01-23T20:28:04.487808","MEAN_MOTION":15.39711079,"ECCENTRICITY":0.0001143,"INCLINATION":53.1574,"RA_OF_ASC_NODE":195.0276,"ARG_OF_PERICENTER":58.989,"MEAN_ANOMALY":301.1227,"EPHEMERIS_TYPE":0,"CLASSIFICATION_TYPE":"U","NORAD_CAT_ID":64912,"ELEMENT_SET_NO":999,"REV_AT_EPOCH":2924,"BSTAR":0.0014093745,"MEAN_MOTION_DOT":0.00056563,"MEAN_MOTION_DDOT":0},{"OBJECT_NAME":"STARLINK-34659","OBJECT_ID":"2025-157K","EPOCH":"2026-01-23T22:00:03.999744","MEAN_MOTION":15.39516621,"ECCENTRICITY":0.00012184,"INCLINATION":53.1567,"RA_OF_ASC_NODE":194.6249,"ARG_OF_PERICENTER":80.1715,"MEAN_ANOMALY":325.7997,"EPHEMERIS_TYPE":0,"CLASSIFICATION_TYPE":"U","NORAD_CAT_ID":64913,"ELEMENT_SET_NO":999,"REV_AT_EPOCH":590,"BSTAR":0.0026055493,"MEAN_MOTION_DOT":0.00104907,"MEAN_MOTION_DDOT":0},{"OBJECT_NAME":"STARLINK-34571","OBJECT_ID":"2025-157L","EPOCH":"2026-01-23T18:27:51.121152","MEAN_MOTION":15.39671503,"ECCENTRICITY":5.392e-5,"INCLINATION":53.1572,"RA_OF_ASC_NODE":195.215,"ARG_OF_PERICENTER":307.2432,"MEAN_ANOMALY":52.8524,"EPHEMERIS_TYPE":0,"CLASSIFICATION_TYPE":"U","NORAD_CAT_ID":64914,"ELEMENT_SET_NO":999,"REV_AT_EPOCH":2918,"BSTAR":0.0022772438,"MEAN_MOTION_DOT":0.0009195,"MEAN_MOTION_DDOT":0},{"OBJECT_NAME":"STARLINK-34636","OBJECT_ID":"2025-157M","EPOCH":"2026-01-23T18:14:28.623264","MEAN_MOTION":15.39701816,"ECCENTRICITY":9.486e-5,"INCLINATION":53.1556,"RA_OF_ASC_NODE":195.1536,"ARG_OF_PERICENTER":55.0415,"MEAN_ANOMALY":305.0679,"EPHEMERIS_TYPE":0,"CLASSIFICATION_TYPE":"U","NORAD_CAT_ID":64915,"ELEMENT_SET_NO":999,"REV_AT_EPOCH":2923,"BSTAR":0.001505253,"MEAN_MOTION_DOT":0.00060451,"MEAN_MOTION_DDOT":0},{"OBJECT_NAME":"STARLINK-34695","OBJECT_ID":"2025-157N","EPOCH":"2026-01-22T21:52:37.411104","MEAN_MOTION":15.39670312,"ECCENTRICITY":3.631e-5,"INCLINATION":53.1581,"RA_OF_ASC_NODE":199.102,"ARG_OF_PERICENTER":223.0865,"MEAN_ANOMALY":137.0111,"EPHEMERIS_TYPE":0,"CLASSIFICATION_TYPE":"U","NORAD_CAT_ID":64916,"ELEMENT_SET_NO":999,"REV_AT_EPOCH":2910,"BSTAR":0.0021683858,"MEAN_MOTION_DOT":0.0008748,"MEAN_MOTION_DDOT":0},{"OBJECT_NAME":"STARLINK-34653","OBJECT_ID":"2025-157P","EPOCH":"2026-01-23T22:00:03.999744","MEAN_MOTION":15.39525632,"ECCENTRICITY":0.00012017,"INCLINATION":53.1576,"RA_OF_ASC_NODE":194.2646,"ARG_OF_PERICENTER":52.9223,"MEAN_ANOMALY":173.2919,"EPHEMERIS_TYPE":0,"CLASSIFICATION_TYPE":"U","NORAD_CAT_ID":64917,"ELEMENT_SET_NO":999,"REV_AT_EPOCH":589,"BSTAR":0.0025984154,"MEAN_MOTION_DOT":0.00104646,"MEAN_MOTION_DDOT":0},{"OBJECT_NAME":"STARLINK-34611","OBJECT_ID":"2025-157Q","EPOCH":"2026-01-23T20:41:55.789728","MEAN_MOTION":15.39722572,"ECCENTRICITY":0.00014031,"INCLINATION":53.1587,"RA_OF_ASC_NODE":195.0864,"ARG_OF_PERICENTER":123.0878,"MEAN_ANOMALY":237.0262,"EPHEMERIS_TYPE":0,"CLASSIFICATION_TYPE":"U","NORAD_CAT_ID":64918,"ELEMENT_SET_NO":999,"REV_AT_EPOCH":2924,"BSTAR":0.0026778469,"MEAN_MOTION_DOT":0.00108617,"MEAN_MOTION_DDOT":0},{"OBJECT_NAME":"STARLINK-34599","OBJECT_ID":"2025-157R","EPOCH":"2026-01-23T22:42:01.023552","MEAN_MOTION":15.39683904,"ECCENTRICITY":0.00014002,"INCLINATION":53.1545,"RA_OF_ASC_NODE":194.1722,"ARG_OF_PERICENTER":93.9314,"MEAN_ANOMALY":266.1851,"EPHEMERIS_TYPE":0,"CLASSIFICATION_TYPE":"U","NORAD_CAT_ID":64919,"ELEMENT_SET_NO":999,"REV_AT_EPOCH":2926,"BSTAR":0.0019488284,"MEAN_MOTION_DOT":0.00078524,"MEAN_MOTION_DDOT":0},{"OBJECT_NAME":"STARLINK-34069","OBJECT_ID":"2025-157S","EPOCH":"2026-01-23T20:35:15.019872","MEAN_MOTION":15.39706609,"ECCENTRICITY":6.168e-5,"INCLINATION":53.1583,"RA_OF_ASC_NODE":195.0571,"ARG_OF_PERICENTER":49.8009,"MEAN_ANOMALY":310.3049,"EPHEMERIS_TYPE":0,"CLASSIFICATION_TYPE":"U","NORAD_CAT_ID":64920,"ELEMENT_SET_NO":999,"REV_AT_EPOCH":2924,"BSTAR":0.0026363978,"MEAN_MOTION_DOT":0.00106848,"MEAN_MOTION_DDOT":0}]
