STARLINK-34273          
1 64905U 25157B   26023.50503994  .00065355  00000+0  16290-2 0  9995
2 64905  53.1575 196.4103 0001264  85.5530 274.5620 15.39636601 29204
STARLINK-34713          
1 64906U 25157C   26023.84818524  .00077166  00000+0  19147-2 0  9998
2 64906  53.1601 194.9990 0000443 324.3125  35.7850 15.39699568 29195
STARLINK-34712          
1 64907U 25157D   26023.90381923  .00064671  00000+0  16117-2 0  9995
2 64907  53.1581 194.6366 0002025  62.3798 297.7412 15.39644833 29256
STARLINK-34702          
1 64908U 25157E   26022.90689893  .00046895  00000+0  11741-2 0  9998
2 64908  53.1562 199.0742 0000687  67.0330 293.0748 15.39647645 29108
STARLINK-34687          
1 64909U 25157F   26023.93620506 -.00176226  00000+0 -44715-2 0  9990
2 64909  53.1588 194.1225 0001654  89.7744 270.3450 15.39798430 29213
STARLINK-34642          
1 64910U 25157G   26023.86675751  .00052493  00000+0  13114-2 0  9992
2 64910  53.1589 195.1152 0000328  67.1653 292.9386 15.39663997 29242
STARLINK-34718          
1 64911U 25157H   26023.85747193  .00053986  00000+0  13469-2 0  9993
2 64911  53.1605 195.0562 0000149 274.5527  85.5461 15.39692043 29245
STARLINK-34711          
1 64912U 25157J   26023.85282972  .00056563  00000+0  14094-2 0  9992
2 64912  53.1574 195.0276 0001143  58.9890 301.1227 15.39711079 29243
STARLINK-34659          
1 64913U 25157K   26023.91671296  .00104907  00000+0  26055-2 0  9997
2 64913  53.1567 194.6249 0001218  80.1715 325.7997 15.39516621  5906
STARLINK-34571          
1 64914U 25157L   26023.76934168  .00091950  00000+0  22772-2 0  9996
2 64914  53.1572 195.2150 0000539 307.2432  52.8524 15.39671503 29186
STARLINK-34636          
1 64915U 25157M   26023.76005351  .00060451  00000+0  15053-2 0  9996
2 64915  53.1556 195.1536 0000948  55.0415 305.0679 15.39701816 29230
STARLINK-34695          
1 64916U 25157N   26022.91154411  .00087480  00000+0  21684-2 0  9993
2 64916  53.1581 199.1020 0000363 223.0865 137.0111 15.39670312 29104
STARLINK-34653          
1 64917U 25157P   26023.91671296  .00104646  00000+0  25984-2 0  9991
2 64917  53.1576 194.2646 0001201  52.9223 173.2919 15.39525632  5890
STARLINK-34611          
1 64918U 25157Q   26023.86245127  .00108617  00000+0  26778-2 0  9990
2 64918  53.1587 195.0864 0001403 123.0878 237.0262 15.39722572 29241
STARLINK-34599          
1 64919U 25157R   26023.94584518  .00078524  00000+0  19488-2 0  9993
2 64919  53.1545 194.1722 0001400  93.9314 266.1851 15.39683904 29260
STARLINK-34069          
1 64920U 25157S   26023.85781273  .00106848  00000+0  26364-2 0  9994
2 64920  53.1583 195.0571 0000616  49.8009 310.3049 15.39706609 29242
